[{"OBJECT_NAME":"KUIPER-00176","OBJECT_ID":"2025-217AC","EPOCH":"2026-03-09T22:52:35.140800","MEAN_MOTION":14.7992947,"ECCENTRICITY":6.934e-5,"INCLINATION":51.9002,"RA_OF_ASC_NODE":41.9321,"ARG_OF_PERICENTER":103.7667,"MEAN_ANOMALY":256.3372,"EPHEMERIS_TYPE":0,"CLASSIFICATION_TYPE":"U","NORAD_CAT_ID":65788,"ELEMENT_SET_NO":999,"REV_AT_EPOCH":2491,"BSTAR":0.00055994201,"MEAN_MOTION_DOT":4.05e-5,"MEAN_MOTION_DDOT":0},{"OBJECT_NAME":"FENGYUN 1C DEB","OBJECT_ID":"1999-025EKP","EPOCH":"2026-03-01T02:01:53.163840","MEAN_MOTION":14.7642252,"ECCENTRICITY":0.00219391,"INCLINATION":99.0484,"RA_OF_ASC_NODE":283.3547,"ARG_OF_PERICENTER":117.4166,"MEAN_ANOMALY":37.3398,"EPHEMERIS_TYPE":0,"CLASSIFICATION_TYPE":"U","NORAD_CAT_ID":37595,"ELEMENT_SET_NO":999,"REV_AT_EPOCH":63759,"BSTAR":0.0046491705,"MEAN_MOTION_DOT":0.00032541,"MEAN_MOTION_DDOT":0}]
